[{"OBJECT_NAME":"TEVEL2-3","OBJECT_ID":"2025-052J","EPOCH":"2026-03-09T15:29:22.754400","MEAN_MOTION":15.30377031,"ECCENTRICITY":0.0004761,"INCLINATION":97.3994,"RA_OF_ASC_NODE":324.7775,"ARG_OF_PERICENTER":105.7353,"MEAN_ANOMALY":254.4413,"EPHEMERIS_TYPE":0,"CLASSIFICATION_TYPE":"U","NORAD_CAT_ID":63218,"ELEMENT_SET_NO":999,"REV_AT_EPOCH":5485,"BSTAR":0.00069446,"MEAN_MOTION_DOT":0.00020365,"MEAN_MOTION_DDOT":0},{"OBJECT_NAME":"STARLINK-34026","OBJECT_ID":"2025-093G","EPOCH":"2026-03-09T09:21:04.361184","MEAN_MOTION":15.27569695,"ECCENTRICITY":0.00012596,"INCLINATION":42.9984,"RA_OF_ASC_NODE":79.827,"ARG_OF_PERICENTER":273.7064,"MEAN_ANOMALY":86.3644,"EPHEMERIS_TYPE":0,"CLASSIFICATION_TYPE":"U","NORAD_CAT_ID":63842,"ELEMENT_SET_NO":999,"REV_AT_EPOCH":4770,"BSTAR":0.0012628556,"MEAN_MOTION_DOT":0.00034641,"MEAN_MOTION_DDOT":0}]
